FLOCK 3P-11
1 41975U 17008AD  19276.89088496  .00001771  00000-0  72390-4 0  9990
2 41975  97.3968 342.7648 0009684 119.5317 240.6888 15.25639927146116
